{
  "type": "FeatureCollection",
  "features": [
    {
      "type": "Feature",
      "properties": {
        "norad_id": 38474,
        "name": "IRIDIUM 33 DEB",
        "group": "iridium-33-debris",
        "lat": -6.4785763667956155,
        "lon": -173.6292766766354,
        "alt_km": 739.2566709615412,
        "timestamp": "2025-12-22T04:03:39.554526+00:00",
        "meta_object_name": "IRIDIUM 33 DEB",
        "meta_object_id": "1997-051AAB",
        "meta_epoch": "2025-12-21T07:20:31.212384",
        "meta_mean_motion": 14.50718538,
        "meta_eccentricity": 0.0027615,
        "meta_inclination": 86.3426,
        "meta_ra_of_asc_node": 6.3307,
        "meta_arg_of_pericenter": 61.1056,
        "meta_mean_anomaly": 299.2914,
        "meta_ephemeris_type": 0,
        "meta_classification_type": "U",
        "meta_norad_cat_id": 38474,
        "meta_element_set_no": 999,
        "meta_rev_at_epoch": 65442,
        "meta_bstar": 0.00039086,
        "meta_mean_motion_dot": 1.564e-05,
        "meta_mean_motion_ddot": 0,
        "tle_line1": "1 38474U 97051AAB 25355.30591681  .00001564  00000+0  39086-3 0  9995",
        "tle_line2": "2 38474  86.3426   6.3307 0027615  61.1056 299.2914 14.50718538654425"
      },
      "geometry": {
        "type": "Point",
        "coordinates": [
          -173.6292766766354,
          -6.4785763667956155
        ]
      }
    },
    {
      "type": "Feature",
      "properties": {
        "norad_id": 39777,
        "name": "IRIDIUM 33 DEB",
        "group": "iridium-33-debris",
        "lat": 69.19824298695953,
        "lon": -178.81778535647496,
        "alt_km": 693.6440614527028,
        "timestamp": "2025-12-22T04:03:39.554536+00:00",
        "meta_object_name": "IRIDIUM 33 DEB",
        "meta_object_id": "1997-051AAJ",
        "meta_epoch": "2025-12-17T11:37:29.440128",
        "meta_mean_motion": 14.56536598,
        "meta_eccentricity": 0.00601884,
        "meta_inclination": 85.9622,
        "meta_ra_of_asc_node": 172.7412,
        "meta_arg_of_pericenter": 170.5587,
        "meta_mean_anomaly": 189.6768,
        "meta_ephemeris_type": 0,
        "meta_classification_type": "U",
        "meta_norad_cat_id": 39777,
        "meta_element_set_no": 999,
        "meta_rev_at_epoch": 60254,
        "meta_bstar": 0.0020288102,
        "meta_mean_motion_dot": 9.279e-05,
        "meta_mean_motion_ddot": 0,
        "tle_line1": "1 39777U 97051AAJ 25351.48436852  .00009279  00000+0  20288-2 0  9999",
        "tle_line2": "2 39777  85.9622 172.7412 0060188 170.5587 189.6768 14.56536598602541"
      },
      "geometry": {
        "type": "Point",
        "coordinates": [
          -178.81778535647496,
          69.19824298695953
        ]
      }
    },
    {
      "type": "Feature",
      "properties": {
        "norad_id": 39778,
        "name": "IRIDIUM 33 DEB",
        "group": "iridium-33-debris",
        "lat": -9.30712555358713,
        "lon": -140.27297481138984,
        "alt_km": 720.7507019010782,
        "timestamp": "2025-12-22T04:03:39.554546+00:00",
        "meta_object_name": "IRIDIUM 33 DEB",
        "meta_object_id": "1997-051AAK",
        "meta_epoch": "2025-12-21T09:01:45.263712",
        "meta_mean_motion": 14.54315729,
        "meta_eccentricity": 0.00070178,
        "meta_inclination": 86.3767,
        "meta_ra_of_asc_node": 39.4763,
        "meta_arg_of_pericenter": 15.0988,
        "meta_mean_anomaly": 345.0427,
        "meta_ephemeris_type": 0,
        "meta_classification_type": "U",
        "meta_norad_cat_id": 39778,
        "meta_element_set_no": 999,
        "meta_rev_at_epoch": 60818,
        "meta_bstar": 0.00061222431,
        "meta_mean_motion_dot": 2.618e-05,
        "meta_mean_motion_ddot": 0,
        "tle_line1": "1 39778U 97051AAK 25355.37621833  .00002618  00000+0  61222-3 0  9991",
        "tle_line2": "2 39778  86.3767  39.4763 0007017  15.0988 345.0427 14.54315729608180"
      },
      "geometry": {
        "type": "Point",
        "coordinates": [
          -140.27297481138984,
          -9.30712555358713
        ]
      }
    },
    {
      "type": "Feature",
      "properties": {
        "norad_id": 39781,
        "name": "IRIDIUM 33 DEB",
        "group": "iridium-33-debris",
        "lat": -68.08055164640128,
        "lon": 83.16573562904154,
        "alt_km": 705.0106394272834,
        "timestamp": "2025-12-22T04:03:39.554556+00:00",
        "meta_object_name": "IRIDIUM 33 DEB",
        "meta_object_id": "1997-051AAN",
        "meta_epoch": "2025-12-20T00:15:44.286336",
        "meta_mean_motion": 14.2080867,
        "meta_eccentricity": 0.01741047,
        "meta_inclination": 86.3716,
        "meta_ra_of_asc_node": 254.9822,
        "meta_arg_of_pericenter": 249.9468,
        "meta_mean_anomaly": 125.5554,
        "meta_ephemeris_type": 0,
        "meta_classification_type": "U",
        "meta_norad_cat_id": 39781,
        "meta_element_set_no": 999,
        "meta_rev_at_epoch": 8210,
        "meta_bstar": 0.0030068331,
        "meta_mean_motion_dot": 7.585e-05,
        "meta_mean_motion_ddot": 0,
        "tle_line1": "1 39781U 97051AAN 25354.01092924  .00007585  00000+0  30068-2 0  9999",
        "tle_line2": "2 39781  86.3716 254.9822 0174104 249.9468 125.5554 14.20808670 82106"
      },
      "geometry": {
        "type": "Point",
        "coordinates": [
          83.16573562904154,
          -68.08055164640128
        ]
      }
    },
    {
      "type": "Feature",
      "properties": {
        "norad_id": 40996,
        "name": "IRIDIUM 33 DEB",
        "group": "iridium-33-debris",
        "lat": 73.51137423004502,
        "lon": 164.5499754294875,
        "alt_km": 567.2527712436668,
        "timestamp": "2025-12-22T04:03:39.554566+00:00",
        "meta_object_name": "IRIDIUM 33 DEB",
        "meta_object_id": "1997-051ABJ",
        "meta_epoch": "2025-12-21T06:48:04.268736",
        "meta_mean_motion": 14.9672554,
        "meta_eccentricity": 0.001126,
        "meta_inclination": 86.3507,
        "meta_ra_of_asc_node": 357.4159,
        "meta_arg_of_pericenter": 39.2145,
        "meta_mean_anomaly": 336.8251,
        "meta_ephemeris_type": 0,
        "meta_classification_type": "U",
        "meta_norad_cat_id": 40996,
        "meta_element_set_no": 999,
        "meta_rev_at_epoch": 62616,
        "meta_bstar": 0.0023808,
        "meta_mean_motion_dot": 0.00027327,
        "meta_mean_motion_ddot": 0,
        "tle_line1": "1 40996U 97051ABJ 25355.28338274  .00027327  00000+0  23808-2 0  9990",
        "tle_line2": "2 40996  86.3507 357.4159 0011260  39.2145 336.8251 14.96725540626169"
      },
      "geometry": {
        "type": "Point",
        "coordinates": [
          164.5499754294875,
          73.51137423004502
        ]
      }
    },
    {
      "type": "Feature",
      "properties": {
        "norad_id": 40998,
        "name": "IRIDIUM 33 DEB",
        "group": "iridium-33-debris",
        "lat": -77.1153886651435,
        "lon": -114.31562480385557,
        "alt_km": 755.2037235294529,
        "timestamp": "2025-12-22T04:03:39.554576+00:00",
        "meta_object_name": "IRIDIUM 33 DEB",
        "meta_object_id": "1997-051ABL",
        "meta_epoch": "2025-12-19T22:16:12.052992",
        "meta_mean_motion": 14.4511921,
        "meta_eccentricity": 0.000918,
        "meta_inclination": 86.3822,
        "meta_ra_of_asc_node": 50.5853,
        "meta_arg_of_pericenter": 65.4089,
        "meta_mean_anomaly": 59.4922,
        "meta_ephemeris_type": 0,
        "meta_classification_type": "U",
        "meta_norad_cat_id": 40998,
        "meta_element_set_no": 999,
        "meta_rev_at_epoch": 6785,
        "meta_bstar": 0.00031233,
        "meta_mean_motion_dot": 1.112e-05,
        "meta_mean_motion_ddot": 0,
        "tle_line1": "1 40998U 97051ABL 25353.92791728  .00001112  00000+0  31233-3 0  9994",
        "tle_line2": "2 40998  86.3822  50.5853 0009180  65.4089  59.4922 14.45119210 67852"
      },
      "geometry": {
        "type": "Point",
        "coordinates": [
          -114.31562480385557,
          -77.1153886651435
        ]
      }
    },
    {
      "type": "Feature",
      "properties": {
        "norad_id": 46435,
        "name": "IRIDIUM 33 DEB",
        "group": "iridium-33-debris",
        "lat": 61.078281179765234,
        "lon": -163.35302666575112,
        "alt_km": 924.1743247679042,
        "timestamp": "2025-12-22T04:03:39.554587+00:00",
        "meta_object_name": "IRIDIUM 33 DEB",
        "meta_object_id": "1997-051ABN",
        "meta_epoch": "2025-12-13T20:22:29.882208",
        "meta_mean_motion": 14.32399442,
        "meta_eccentricity": 0.0208315,
        "meta_inclination": 86.2839,
        "meta_ra_of_asc_node": 193.4722,
        "meta_arg_of_pericenter": 272.7642,
        "meta_mean_anomaly": 103.0816,
        "meta_ephemeris_type": 0,
        "meta_classification_type": "U",
        "meta_norad_cat_id": 46435,
        "meta_element_set_no": 999,
        "meta_rev_at_epoch": 7932,
        "meta_bstar": 0.009141333,
        "meta_mean_motion_dot": 0.00031559,
        "meta_mean_motion_ddot": 0,
        "tle_line1": "1 46435U 97051ABN 25347.84895697  .00031559  00000+0  91413-2 0  9993",
        "tle_line2": "2 46435  86.2839 193.4722 0208315 272.7642 103.0816 14.32399442 79328"
      },
      "geometry": {
        "type": "Point",
        "coordinates": [
          -163.35302666575112,
          61.078281179765234
        ]
      }
    }
  ]
}